[{"OBJECT_NAME":"SITRO-AIS 8 (ANOKHIN)","OBJECT_ID":"2023-091AD","EPOCH":"2026-03-09T23:44:40.058592","MEAN_MOTION":15.29359179,"ECCENTRICITY":0.0012509,"INCLINATION":97.5169,"RA_OF_ASC_NODE":133.2823,"ARG_OF_PERICENTER":92.0171,"MEAN_ANOMALY":268.2501,"EPHEMERIS_TYPE":0,"CLASSIFICATION_TYPE":"U","NORAD_CAT_ID":57193,"ELEMENT_SET_NO":999,"REV_AT_EPOCH":14927,"BSTAR":0.00064982524,"MEAN_MOTION_DOT":0.00018494,"MEAN_MOTION_DDOT":0},{"OBJECT_NAME":"STARLINK-35554","OBJECT_ID":"2025-245F","EPOCH":"2026-03-09T21:01:51.157056","MEAN_MOTION":15.30232118,"ECCENTRICITY":6.671e-5,"INCLINATION":53.1566,"RA_OF_ASC_NODE":283.1355,"ARG_OF_PERICENTER":55.4083,"MEAN_ANOMALY":304.6981,"EPHEMERIS_TYPE":0,"CLASSIFICATION_TYPE":"U","NORAD_CAT_ID":66239,"ELEMENT_SET_NO":999,"REV_AT_EPOCH":2112,"BSTAR":0.00088149449,"MEAN_MOTION_DOT":0.00025865,"MEAN_MOTION_DDOT":0}]
